CCSDS_OMM_VERS = 2.0
CREATION_DATE  = 
ORIGINATOR     = 

OBJECT_NAME    = STARLINK-36715
OBJECT_ID      = 2026-025Z
CENTER_NAME    = EARTH
REF_FRAME      = TEME
TIME_SYSTEM    = UTC
MEAN_ELEMENT_THEORY = SGP/SGP4

EPOCH          = 2026-02-19T06:00:02.000160
MEAN_MOTION    = 15.96219189
ECCENTRICITY   = .00015062
INCLINATION    = 97.2726
RA_OF_ASC_NODE = 160.8864
ARG_OF_PERICENTER = 58.2415
MEAN_ANOMALY   = 354.2597

EPHEMERIS_TYPE = 0
CLASSIFICATION_TYPE = U
NORAD_CAT_ID   = 67716
ELEMENT_SET_NO = 999
REV_AT_EPOCH   = 294
BSTAR          = -.36867265E-2
MEAN_MOTION_DOT = -.1505518E-1
MEAN_MOTION_DDOT = .67079407E-3

CCSDS_OMM_VERS = 2.0
CREATION_DATE  = 
ORIGINATOR     = 

OBJECT_NAME    = STARLINK-36385
OBJECT_ID      = 2026-025AA
CENTER_NAME    = EARTH
REF_FRAME      = TEME
TIME_SYSTEM    = UTC
MEAN_ELEMENT_THEORY = SGP/SGP4

EPOCH          = 2026-02-19T06:00:02.000160
MEAN_MOTION    = 15.95358114
ECCENTRICITY   = .00015558
INCLINATION    = 97.2726
RA_OF_ASC_NODE = 160.8781
ARG_OF_PERICENTER = 60.1771
MEAN_ANOMALY   = 332.3172

EPHEMERIS_TYPE = 0
CLASSIFICATION_TYPE = U
NORAD_CAT_ID   = 67717
ELEMENT_SET_NO = 999
REV_AT_EPOCH   = 294
BSTAR          = -.39428728E-2
MEAN_MOTION_DOT = -.1537089E-1
MEAN_MOTION_DDOT = .6907995E-3

CCSDS_OMM_VERS = 2.0
CREATION_DATE  = 
ORIGINATOR     = 

OBJECT_NAME    = CZ-2F DEB
OBJECT_ID      = 2026-024E
CENTER_NAME    = EARTH
REF_FRAME      = TEME
TIME_SYSTEM    = UTC
MEAN_ELEMENT_THEORY = SGP/SGP4

EPOCH          = 2026-02-19T06:51:04.773888
MEAN_MOTION    = 15.17492624
ECCENTRICITY   = .02580004
INCLINATION    = 50.3132
RA_OF_ASC_NODE = 108.6319
ARG_OF_PERICENTER = 207.6391
MEAN_ANOMALY   = 151.0650

EPHEMERIS_TYPE = 0
CLASSIFICATION_TYPE = U
NORAD_CAT_ID   = 67718
ELEMENT_SET_NO = 999
REV_AT_EPOCH   = 183
BSTAR          = .43256595E-2
MEAN_MOTION_DOT = .218721E-2
MEAN_MOTION_DDOT = 0

CCSDS_OMM_VERS = 2.0
CREATION_DATE  = 
ORIGINATOR     = 

OBJECT_NAME    = CZ-2F DEB
OBJECT_ID      = 2026-024F
CENTER_NAME    = EARTH
REF_FRAME      = TEME
TIME_SYSTEM    = UTC
MEAN_ELEMENT_THEORY = SGP/SGP4

EPOCH          = 2026-02-19T07:18:38.221920
MEAN_MOTION    = 14.97893457
ECCENTRICITY   = .03315163
INCLINATION    = 49.7903
RA_OF_ASC_NODE = 110.0187
ARG_OF_PERICENTER = 197.8030
MEAN_ANOMALY   = 161.1068

EPHEMERIS_TYPE = 0
CLASSIFICATION_TYPE = U
NORAD_CAT_ID   = 67719
ELEMENT_SET_NO = 999
REV_AT_EPOCH   = 148
BSTAR          = .40138571E-2
MEAN_MOTION_DOT = .157553E-2
MEAN_MOTION_DDOT = 0

CCSDS_OMM_VERS = 2.0
CREATION_DATE  = 
ORIGINATOR     = 

OBJECT_NAME    = CZ-2F DEB
OBJECT_ID      = 2026-024G
CENTER_NAME    = EARTH
REF_FRAME      = TEME
TIME_SYSTEM    = UTC
MEAN_ELEMENT_THEORY = SGP/SGP4

EPOCH          = 2026-02-19T06:13:36.944832
MEAN_MOTION    = 14.95210258
ECCENTRICITY   = .03423161
INCLINATION    = 49.8296
RA_OF_ASC_NODE = 110.4749
ARG_OF_PERICENTER = 194.1666
MEAN_ANOMALY   = 164.9485

EPHEMERIS_TYPE = 0
CLASSIFICATION_TYPE = U
NORAD_CAT_ID   = 67720
ELEMENT_SET_NO = 999
REV_AT_EPOCH   = 179
BSTAR          = .40398962E-2
MEAN_MOTION_DOT = .154453E-2
MEAN_MOTION_DDOT = 0

CCSDS_OMM_VERS = 2.0
CREATION_DATE  = 
ORIGINATOR     = 

OBJECT_NAME    = 2026-027A
OBJECT_ID      = 2026-027A
CENTER_NAME    = EARTH
REF_FRAME      = TEME
TIME_SYSTEM    = UTC
MEAN_ELEMENT_THEORY = SGP/SGP4

EPOCH          = 2026-02-19T07:21:06.305472
MEAN_MOTION    = 15.17329715
ECCENTRICITY   = .00092616
INCLINATION    = 97.4883
RA_OF_ASC_NODE = 179.5213
ARG_OF_PERICENTER = 263.0986
MEAN_ANOMALY   = 96.9194

EPHEMERIS_TYPE = 0
CLASSIFICATION_TYPE = U
NORAD_CAT_ID   = 67746
ELEMENT_SET_NO = 999
REV_AT_EPOCH   = 107
BSTAR          = .42425603E-3
MEAN_MOTION_DOT = .8407E-4
MEAN_MOTION_DDOT = 0

CCSDS_OMM_VERS = 2.0
CREATION_DATE  = 
ORIGINATOR     = 

OBJECT_NAME    = 2026-027B
OBJECT_ID      = 2026-027B
CENTER_NAME    = EARTH
REF_FRAME      = TEME
TIME_SYSTEM    = UTC
MEAN_ELEMENT_THEORY = SGP/SGP4

EPOCH          = 2026-02-19T07:20:25.732896
MEAN_MOTION    = 15.17431121
ECCENTRICITY   = .00094183
INCLINATION    = 97.4878
RA_OF_ASC_NODE = 179.5214
ARG_OF_PERICENTER = 265.6839
MEAN_ANOMALY   = 94.3319

EPHEMERIS_TYPE = 0
CLASSIFICATION_TYPE = U
NORAD_CAT_ID   = 67747
ELEMENT_SET_NO = 999
REV_AT_EPOCH   = 107
BSTAR          = .42287769E-3
MEAN_MOTION_DOT = .8404E-4
MEAN_MOTION_DDOT = 0

CCSDS_OMM_VERS = 2.0
CREATION_DATE  = 
ORIGINATOR     = 

OBJECT_NAME    = 2026-027C
OBJECT_ID      = 2026-027C
CENTER_NAME    = EARTH
REF_FRAME      = TEME
TIME_SYSTEM    = UTC
MEAN_ELEMENT_THEORY = SGP/SGP4

EPOCH          = 2026-02-19T07:19:31.307808
MEAN_MOTION    = 15.17549028
ECCENTRICITY   = .00097974
INCLINATION    = 97.4890
RA_OF_ASC_NODE = 179.5235
ARG_OF_PERICENTER = 268.7902
MEAN_ANOMALY   = 91.2209

EPHEMERIS_TYPE = 0
CLASSIFICATION_TYPE = U
NORAD_CAT_ID   = 67748
ELEMENT_SET_NO = 999
REV_AT_EPOCH   = 107
BSTAR          = .30628991E-3
MEAN_MOTION_DOT = .6088E-4
MEAN_MOTION_DDOT = 0

CCSDS_OMM_VERS = 2.0
CREATION_DATE  = 
ORIGINATOR     = 

OBJECT_NAME    = 2026-027D
OBJECT_ID      = 2026-027D
CENTER_NAME    = EARTH
REF_FRAME      = TEME
TIME_SYSTEM    = UTC
MEAN_ELEMENT_THEORY = SGP/SGP4

EPOCH          = 2026-02-19T07:18:30.095136
MEAN_MOTION    = 15.17729496
ECCENTRICITY   = .00096576
INCLINATION    = 97.4885
RA_OF_ASC_NODE = 179.5240
ARG_OF_PERICENTER = 273.2428
MEAN_ANOMALY   = 86.7701

EPHEMERIS_TYPE = 0
CLASSIFICATION_TYPE = U
NORAD_CAT_ID   = 67749
ELEMENT_SET_NO = 999
REV_AT_EPOCH   = 102
BSTAR          = .4847213E-3
MEAN_MOTION_DOT = .9728E-4
MEAN_MOTION_DDOT = 0

CCSDS_OMM_VERS = 2.0
CREATION_DATE  = 
ORIGINATOR     = 

OBJECT_NAME    = 2026-027E
OBJECT_ID      = 2026-027E
CENTER_NAME    = EARTH
REF_FRAME      = TEME
TIME_SYSTEM    = UTC
MEAN_ELEMENT_THEORY = SGP/SGP4

EPOCH          = 2026-02-19T07:18:25.056288
MEAN_MOTION    = 15.17734738
ECCENTRICITY   = .00087894
INCLINATION    = 97.4895
RA_OF_ASC_NODE = 179.5252
ARG_OF_PERICENTER = 275.0867
MEAN_ANOMALY   = 84.9363

EPHEMERIS_TYPE = 0
CLASSIFICATION_TYPE = U
NORAD_CAT_ID   = 67750
ELEMENT_SET_NO = 999
REV_AT_EPOCH   = 107
BSTAR          = .42301324E-3
MEAN_MOTION_DOT = .8479E-4
MEAN_MOTION_DDOT = 0

CCSDS_OMM_VERS = 2.0
CREATION_DATE  = 
ORIGINATOR     = 

OBJECT_NAME    = 2026-027F
OBJECT_ID      = 2026-027F
CENTER_NAME    = EARTH
REF_FRAME      = TEME
TIME_SYSTEM    = UTC
MEAN_ELEMENT_THEORY = SGP/SGP4

EPOCH          = 2026-02-19T07:17:59.930304
MEAN_MOTION    = 15.17836591
ECCENTRICITY   = .00099436
INCLINATION    = 97.4897
RA_OF_ASC_NODE = 179.5259
ARG_OF_PERICENTER = 273.9763
MEAN_ANOMALY   = 86.0334

EPHEMERIS_TYPE = 0
CLASSIFICATION_TYPE = U
NORAD_CAT_ID   = 67751
ELEMENT_SET_NO = 999
REV_AT_EPOCH   = 107
BSTAR          = .68778671E-3
MEAN_MOTION_DOT = .13883E-3
MEAN_MOTION_DDOT = 0

CCSDS_OMM_VERS = 2.0
CREATION_DATE  = 
ORIGINATOR     = 

OBJECT_NAME    = 2026-027G
OBJECT_ID      = 2026-027G
CENTER_NAME    = EARTH
REF_FRAME      = TEME
TIME_SYSTEM    = UTC
MEAN_ELEMENT_THEORY = SGP/SGP4

EPOCH          = 2026-02-19T07:17:51.501984
MEAN_MOTION    = 15.17822741
ECCENTRICITY   = .00091209
INCLINATION    = 97.4890
RA_OF_ASC_NODE = 179.5252
ARG_OF_PERICENTER = 277.1321
MEAN_ANOMALY   = 82.8876

EPHEMERIS_TYPE = 0
CLASSIFICATION_TYPE = U
NORAD_CAT_ID   = 67752
ELEMENT_SET_NO = 999
REV_AT_EPOCH   = 107
BSTAR          = .44887846E-3
MEAN_MOTION_DOT = .9026E-4
MEAN_MOTION_DDOT = 0

