STARLINK-36715          
1 67716U 26025Z   26050.25002315 -.01505518  67079-3 -36867-2 0  9994
2 67716  97.2726 160.8864 0001506  58.2415 354.2597 15.96219189  2943
STARLINK-36385          
1 67717U 26025AA  26050.25002315 -.01537089  69080-3 -39429-2 0  9994
2 67717  97.2726 160.8781 0001555  60.1771 332.3172 15.95358114  2940
CZ-2F DEB               
1 67718U 26024E   26050.28547192  .00218721  00000+0  43257-2 0  9997
2 67718  50.3132 108.6319 0258000 207.6391 151.0650 15.17492624  1837
CZ-2F DEB               
1 67719U 26024F   26050.30460905  .00157553  00000+0  40139-2 0  9998
2 67719  49.7903 110.0187 0331516 197.8030 161.1068 14.97893457  1482
CZ-2F DEB               
1 67720U 26024G   26050.25945538  .00154453  00000+0  40399-2 0  9998
2 67720  49.8296 110.4749 0342316 194.1666 164.9485 14.95210258  1791
2026-027A               
1 67746U 26027A   26050.30632298  .00008407  00000+0  42426-3 0  9992
2 67746  97.4883 179.5213 0009261 263.0986  96.9194 15.17329715  1078
2026-027B               
1 67747U 26027B   26050.30585339  .00008404  00000+0  42288-3 0  9999
2 67747  97.4878 179.5214 0009418 265.6839  94.3319 15.17431121  1079
2026-027C               
1 67748U 26027C   26050.30522347  .00006088  00000+0  30629-3 0  9992
2 67748  97.4890 179.5235 0009797 268.7902  91.2209 15.17549028  1072
2026-027D               
1 67749U 26027D   26050.30451499  .00009728  00000+0  48472-3 0  9991
2 67749  97.4885 179.5240 0009657 273.2428  86.7701 15.17729496  1022
2026-027E               
1 67750U 26027E   26050.30445667  .00008479  00000+0  42301-3 0  9990
2 67750  97.4895 179.5252 0008789 275.0867  84.9363 15.17734738  1074
2026-027F               
1 67751U 26027F   26050.30416586  .00013883  00000+0  68779-3 0  9991
2 67751  97.4897 179.5259 0009943 273.9763  86.0334 15.17836591  1070
2026-027G               
1 67752U 26027G   26050.30406831  .00009026  00000+0  44888-3 0  9993
2 67752  97.4890 179.5252 0009120 277.1321  82.8876 15.17822741  1077
